[{"OBJECT_NAME":"STARLINK-6353","OBJECT_ID":"2023-088J","EPOCH":"2026-03-09T02:40:57.857664","MEAN_MOTION":15.025351,"ECCENTRICITY":0.00011101,"INCLINATION":43.0016,"RA_OF_ASC_NODE":110.5408,"ARG_OF_PERICENTER":269.8975,"MEAN_ANOMALY":90.174,"EPHEMERIS_TYPE":0,"CLASSIFICATION_TYPE":"U","NORAD_CAT_ID":57056,"ELEMENT_SET_NO":999,"REV_AT_EPOCH":15028,"BSTAR":-1.203375e-5,"MEAN_MOTION_DOT":-3.66e-6,"MEAN_MOTION_DDOT":0},{"OBJECT_NAME":"FENGYUN 1C DEB","OBJECT_ID":"1999-025FA","EPOCH":"2026-03-09T12:13:03.178848","MEAN_MOTION":14.51919442,"ECCENTRICITY":0.02484504,"INCLINATION":98.681,"RA_OF_ASC_NODE":170.2285,"ARG_OF_PERICENTER":35.3689,"MEAN_ANOMALY":24.2024,"EPHEMERIS_TYPE":0,"CLASSIFICATION_TYPE":"U","NORAD_CAT_ID":29856,"ELEMENT_SET_NO":999,"REV_AT_EPOCH":97632,"BSTAR":0.0021637674,"MEAN_MOTION_DOT":0.00013045,"MEAN_MOTION_DDOT":0}]
